API VERSION: 1.2
API SOURCE: NASA/JPL Horizons API



*******************************************************************************
Ephemeris / API_USER Wed Apr 15 12:09:01 2026 Pasadena, USA      / Horizons
*******************************************************************************
Target body name: Saturn (699)                    {source: sat441l}
Center body name: Earth (399)                     {source: DE441}
Center-site name: BODY CENTER
*******************************************************************************
Start time      : A.D. 2010-Sep-08 20:15:00.0000 TDB
Stop  time      : A.D. 2010-Sep-10 20:15:00.0000 TDB
Step-size       : 60 minutes
*******************************************************************************
Center geodetic : 0.0, 0.0, 0.0                   {E-lon(deg),Lat(deg),Alt(km)}
Center cylindric: 0.0, 0.0, 0.0                   {E-lon(deg),Dxy(km),Dz(km)}
Center radii    : 6378.137, 6378.137, 6356.752 km {Equator_a, b, pole_c}
Output units    : AU-D
Calendar mode   : Mixed Julian/Gregorian
Output type     : GEOMETRIC cartesian states
Output format   : 3 (position, velocity, LT, range, range-rate)
EOP file        : eop.260414.p260711
EOP coverage    : DATA-BASED 1962-JAN-20 TO 2026-APR-14. PREDICTS-> 2026-JUL-10
Reference frame : Ecliptic of J2000.0
*******************************************************************************
            JDTDB,            Calendar Date (TDB),                      X,                      Y,                      Z,                     VX,                     VY,                     VZ,                     LT,                     RG,                     RR,
**************************************************************************************************************************************************************************************************************************************************************************
$$SOE
2455448.343750000, A.D. 2010-Sep-08 20:15:00.0000, -1.045140385288829E+01, -8.944947474869206E-01,  3.969602603545529E-01, -3.538907599648869E-03, -2.217614962261262E-02,  8.226500210451929E-05,  6.062631242696728E-02,  1.049712059556098E+01,  5.416309863067920E-03,
2455448.385416667, A.D. 2010-Sep-08 21:15:00.0000, -1.045155105735608E+01, -8.954188149212258E-01,  3.969636879771247E-01, -3.526906464315029E-03, -2.217908571400932E-02,  8.226089320899197E-05,  6.062761466281207E-02,  1.049734607070798E+01,  5.406496826687841E-03,
2455448.427083333, A.D. 2010-Sep-08 22:15:00.0000, -1.045169776172773E+01, -8.963430045037866E-01,  3.969671154298947E-01, -3.514902982750054E-03, -2.218201273554034E-02,  8.225684960505868E-05,  6.062891453691801E-02,  1.049757113693258E+01,  5.396681585115725E-03,
2455448.468750000, A.D. 2010-Sep-08 23:15:00.0000, -1.045184396590530E+01, -8.972673158562433E-01,  3.969705427153200E-01, -3.502897148484028E-03, -2.218493066497329E-02,  8.225285838788696E-05,  6.063021204875293E-02,  1.049779579414263E+01,  5.386864127055521E-03,
2455448.510416667, A.D. 2010-Sep-09 00:15:00.0000, -1.045198966979076E+01, -8.981917485992350E-01,  3.969739698352935E-01, -3.490888961680475E-03, -2.218783947680287E-02,  8.224890554835592E-05,  6.063150719778269E-02,  1.049802004224564E+01,  5.377044447483720E-03,
2455448.552083333, A.D. 2010-Sep-09 01:15:00.0000, -1.045213487328619E+01, -8.991163023522984E-01,  3.969773967911162E-01, -3.478878429407308E-03, -2.219073914379105E-02,  8.224497676204090E-05,  6.063279998347278E-02,  1.049824388114908E+01,  5.367222548078947E-03,
2455448.593750000, A.D. 2010-Sep-09 02:15:00.0000, -1.045227957629415E+01, -9.000409767338231E-01,  3.969808235834970E-01, -3.466865565423769E-03, -2.219362963840027E-02,  8.224105808053769E-05,  6.063409040528989E-02,  1.049846731076060E+01,  5.357398437157700E-03,
2455448.635416667, A.D. 2010-Sep-09 03:15:00.0000, -1.045242377871787E+01, -9.009657713610674E-01,  3.969842502125819E-01, -3.454850389627450E-03, -2.219651093403874E-02,  8.223713649901940E-05,  6.063537846270343E-02,  1.049869033098833E+01,  5.347572129251743E-03,
2455448.677083333, A.D. 2010-Sep-09 04:15:00.0000, -1.045256748046153E+01, -9.018906858502194E-01,  3.969876766780027E-01, -3.442832927294619E-03, -2.219938300607760E-02,  8.223320039241850E-05,  6.063666415518702E-02,  1.049891294174113E+01,  5.337743644455898E-03,
2455448.718750000, A.D. 2010-Sep-09 05:15:00.0000, -1.045271068143046E+01, -9.028157198164961E-01,  3.969911029789407E-01, -3.430813208224796E-03, -2.220224583262999E-02,  8.222923982596733E-05,  6.063794748221971E-02,  1.049913514292881E+01,  5.327913007655971E-03,
2455448.760416667, A.D. 2010-Sep-09 06:15:00.0000, -1.045285338153133E+01, -9.037408728742691E-01,  3.969945291142024E-01, -3.418791265866879E-03, -2.220509939510857E-02,  8.222524675517670E-05,  6.063922844328704E-02,  1.049935693446228E+01,  5.318080247715498E-03,
2455448.802083333, A.D. 2010-Sep-09 07:15:00.0000, -1.045299558067224E+01, -9.046661446372116E-01,  3.969979550823006E-01, -3.406767136470147E-03, -2.220794367859387E-02,  8.222121513509978E-05,  6.064050703788185E-02,  1.049957831625374E+01,  5.308245396667971E-03,
2455448.843750000, A.D. 2010-Sep-09 08:15:00.0000, -1.045313727876286E+01, -9.055915347184555E-01,  3.970013808815384E-01, -3.394740858273567E-03, -2.221077867205326E-02,  8.221714095926828E-05,  6.064178326550507E-02,  1.049979928821677E+01,  5.298408488931863E-03,
2455448.885416667, A.D. 2010-Sep-09 09:15:00.0000, -1.045327847571447E+01, -9.065170427307550E-01,  3.970048065100943E-01, -3.382712470725240E-03, -2.221360436844828E-02,  8.221302224591925E-05,  6.064305712566604E-02,  1.050001985026642E+01,  5.288569560544226E-03,
2455448.927083333, A.D. 2010-Sep-09 10:15:00.0000, -1.045341917144001E+01, -9.074426682866564E-01,  3.970082319661059E-01, -3.370682013712923E-03, -2.221642076475843E-02,  8.220885898327295E-05,  6.064432861788294E-02,  1.050024000231926E+01,  5.278728648396637E-03,
2455448.968750000, A.D. 2010-Sep-09 11:15:00.0000, -1.045355936585409E+01, -9.083684109986617E-01,  3.970116572477493E-01, -3.358649526787520E-03, -2.221922786193417E-02,  8.220465303814792E-05,  6.064559774168283E-02,  1.050045974429342E+01,  5.268885789456687E-03,
2455449.010416667, A.D. 2010-Sep-09 12:15:00.0000, -1.045369905887292E+01, -9.092942704793946E-01,  3.970150823533158E-01, -3.346615048373568E-03, -2.222202566477247E-02,  8.220040802415031E-05,  6.064686449660162E-02,  1.050067907610851E+01,  5.259041019968305E-03,
2455449.052083333, A.D. 2010-Sep-09 13:15:00.0000, -1.045383825041430E+01, -9.102202463417538E-01,  3.970185072812801E-01, -3.334578614982293E-03, -2.222481418169000E-02,  8.219612911856760E-05,  6.064812888218375E-02,  1.050089799768569E+01,  5.249194374643789E-03,
2455449.093750000, A.D. 2010-Sep-09 14:15:00.0000, -1.045397694039749E+01, -9.111463381990584E-01,  3.970219320303613E-01, -3.322540260470024E-03, -2.222759342435428E-02,  8.219182281264136E-05,  6.064939089798176E-02,  1.050111650894747E+01,  5.239345885886044E-03,
2455449.135416667, A.D. 2010-Sep-09 15:15:00.0000, -1.045411512874308E+01, -9.120725456651727E-01,  3.970253565995707E-01, -3.310500015412863E-03, -2.223036340712807E-02,  8.218749658012764E-05,  6.065065054355564E-02,  1.050133460981766E+01,  5.229495583107062E-03,
2455449.177083333, A.D. 2010-Sep-09 16:15:00.0000, -1.045425281537289E+01, -9.129988683546020E-01,  3.970287809882445E-01, -3.298457906690853E-03, -2.223312414629231E-02,  8.218315845616114E-05,  6.065190781847203E-02,  1.050155230022123E+01,  5.219643492231998E-03,
2455449.218750000, A.D. 2010-Sep-09 17:15:00.0000, -1.045439000020975E+01, -9.139253058825523E-01,  3.970322051960562E-01, -3.286413957383506E-03, -2.223587565904463E-02,  8.217881653456094E-05,  6.065316272230341E-02,  1.050176958008415E+01,  5.209789635490110E-03,
2455449.260416667, A.D. 2010-Sep-09 18:15:00.0000, -1.045452668317738E+01, -9.148518578649470E-01,  3.970356292230091E-01, -3.274368187064045E-03, -2.223861796233093E-02,  8.217447842030900E-05,  6.065441525462712E-02,  1.050198644933325E+01,  5.199934031585819E-03,
2455449.302083333, A.D. 2010-Sep-09 19:15:00.0000, -1.045466286420027E+01, -9.157785239183874E-01,  3.970390530694031E-01, -3.262320612530862E-03, -2.224135107166525E-02,  8.217015071665814E-05,  6.065566541502467E-02,  1.050220290789607E+01,  5.190076696304510E-03,
2455449.343750000, A.D. 2010-Sep-09 20:15:00.0000, -1.045479854320357E+01, -9.167053036600765E-01,  3.970424767357871E-01, -3.250271248919156E-03, -2.224407500023682E-02,  8.216583868781588E-05,  6.065691320308111E-02,  1.050241895570076E+01,  5.180217643527788E-03,
2455449.385416667, A.D. 2010-Sep-09 21:15:00.0000, -1.045493372011304E+01, -9.176321967077130E-01,  3.970459002229005E-01, -3.238220110979486E-03, -2.224678975880231E-02,  8.216154632033100E-05,  6.065815861838471E-02,  1.050263459267603E+01,  5.170356886497988E-03,
2455449.427083333, A.D. 2010-Sep-09 22:15:00.0000, -1.045506839485506E+01, -9.185592026794163E-01,  3.970493235316348E-01, -3.226167214077346E-03, -2.224949535712675E-02,  8.215727711408104E-05,  6.065940166052700E-02,  1.050284981875115E+01,  5.160494438967936E-03,
2455449.468750000, A.D. 2010-Sep-09 23:15:00.0000, -1.045520256735668E+01, -9.194863211937553E-01,  3.970527466630488E-01, -3.214112574142083E-03, -2.225219180807880E-02,  8.215303606984287E-05,  6.066064232910293E-02,  1.050306463385600E+01,  5.150630315583355E-03,
2455449.510416667, A.D. 2010-Sep-10 00:15:00.0000, -1.045533623754557E+01, -9.204135518700002E-01,  3.970561696184868E-01, -3.202056206489523E-03, -2.225487912922141E-02,  8.214883034315722E-05,  6.066188062371091E-02,  1.050327903792105E+01,  5.140764530876820E-03,
2455449.552083333, A.D. 2010-Sep-10 01:15:00.0000, -1.045546940535009E+01, -9.213408943278777E-01,  3.970595923994565E-01, -3.189998126107027E-03, -2.225755733205213E-02,  8.214466400342304E-05,  6.066311654395288E-02,  1.050349303087735E+01,  5.130897098411121E-03,
